#dP2024  2 12  0  0  0.00000000      96 __u+U IGS20 FIT  IAC
## 2301  86400.00000000   900.00000000 60352 0.0000000000000
+  130   C01C02C03C04C05C06C07C08C09C10C11C12C13C14C16C19C20
+        C21C22C23C24C25C26C27C28C29C30C32C33C34C35C36C37C38
+        C39C40C41C42C43C44C45C46C59C60E02E03E04E05E07E08E09
+        E10E11E12E13E14E15E18E19E21E24E25E26E27E30E31E33E34
+        E36G01G02G03G04G05G06G07G08G09G10G11G12G13G14G15G16
+        G17G18G19G20G21G22G23G24G25G26G27G28G29G30G31G32J02
+        J03J04J07R01R02R03R04R05R06R07R08R09R10R11R12R13R14
+        R15R16R17R18R19R20R21R22R23R24R26  0  0  0  0  0  0
++        17 17 17 17 17  9 10 10  9 10  9  9  9  9  9  7  7
++         8  7  7  7  7  7  7  7  7  7  7  7  7  7  7  7  9
++         8  8  7  8  7  8  7  8 18 17  4  5  4  4  5  5  4
++         4  4  4  5  5  4  4  4  4  5  5  5  4  0  5  4  4
++         4  4  4  4  4  4  4  4  4  4  4  4  4  4  4  4  4
++         4  4  4  4  4  4  4  4  3  4  4  4  4  4  4  4  8
++         9  9 18  7  6  6  6  6 15  6  6  6 15  6  6  8  6
++         6  6  6  6  8  8  6  6 15  6  9  0  0  0  0  0  0
%c M  cc GPS ccc cccc cccc cccc cccc ccccc ccccc ccccc ccccc
%c cc cc ccc ccc cccc cccc cccc cccc ccccc ccccc ccccc ccccc
%f  0.0000000  0.000000000  0.00000000000  0.000000000000000
%f  0.0000000  0.000000000  0.00000000000  0.000000000000000
%i    0    0    0    0      0      0      0      0         0
%i    0    0    0    0      0      0      0      0         0
/* INFORMATION & ANALYSIS CENTER (IAC)            RAPID DATA
/* S/V CLOCKS ARE ALIGNED TO GNSS TIME                      
/* G:C1WC2W R:C1PC2P E:C1XC5X C:C2IC6I J:C1CC2S             
/* PCV:IGS20_2290 OL/AL:FES2004  NONE     YN ORB:CoN CLK:CoN
*  2024 02 12  8 15  0.00000000
PC01 -34381.603150  24430.192616   -482.836226    884.435410
PC02   4412.941581  41860.620755  -1657.527025    421.091891
PC03 -14766.282066  39440.324034   -942.716090    -35.328827
PC04 -39678.412140  14343.896411    -32.299359    857.018174
PC05  21839.198223  35996.301201  -1487.190796   -710.074062
PC06  -6303.146969  39317.618208 -13373.603754    105.037141
PC07  -7786.257440  26529.641136  31912.113732   -788.525238
PC08 -20423.360730  30263.732920 -21265.984819     44.291380
PC09  -1129.831540  41576.767915  -3916.635014   -479.219436
PC10    772.617785  28522.610795  31453.928674     88.337691
PC11   -887.426974  23762.539064  14679.675682    406.479786
PC12 -13376.314427   8014.021641  23183.855197    771.881339
PC13 -11987.979052  30349.707353 -26682.989416    416.635456
PC14  -6414.624087  14854.885527 -22712.023901    172.686078
PC16  -7180.584018  38375.768386 -15188.882320   -335.083943
PC19  -4689.061045 -15796.495331  22546.385845   -927.606606
PC20  14978.707093 -12154.517703  20191.525067   -155.058252
PC21 -27371.797930    728.775896  -5302.768079   -962.295260
PC22 -22824.569163 -10591.015732  12042.717082   -112.737562
PC23  11254.623400  12147.049460  22456.838106   -781.739516
PC24 -17721.237759  21431.723459  -2511.819558    877.109399
PC25  -3576.069448  23605.130149  14450.069049    324.237809
PC26 -20478.601227   7694.939813 -17366.646184   -248.054848
PC27  17278.376607   1314.662346 -21889.151265    270.049879
PC28  17300.241578  18124.342816 -12277.260730    205.386246
PC29  -7161.616867 -26045.787560  -7021.745774    240.718055
PC30   7910.225593 -16990.002005 -20690.906665    -24.287596
PC32  27402.185805   -921.845953   5256.345269   -566.437618
PC33   4723.919702  15780.544291 -22520.279359   -948.187005
PC34  -6840.084679  18221.435379  19978.292513    367.587532
PC35 -17990.943064 -17556.883960  12150.147045    435.515519
PC36   4540.717762 -23651.833107 -14074.892406    -17.888720
PC37  20531.754892  -6739.214630  17645.051792   -935.793621
PC38 -25109.639221  31244.899919 -13227.880706    136.316889
PC39  -9662.204359  34677.717162 -21707.678470     -7.095656
PC40 -12283.152053  20065.375853  34968.212440    -56.146561
PC41  22358.345824  10861.002053 -12638.991572   -889.828822
PC42 -16490.948619  11504.700209 -19291.632119   -455.214697
PC43   6418.867701  25987.206398   7831.729670     60.119528
PC44 -17506.026733   -844.007035  21710.384405    382.098309
PC45 -11332.993258 -11864.127470 -22582.005487    -69.594401
PC46  17273.944404 -21831.712802   1568.965764   -123.194597
PC59 -32291.857421  27069.302145  -1318.128771     -0.304407
PC60   7254.037667  41516.215940  -1011.466773     -0.305238
PE02 -22371.914296  -5428.111395 -18630.335737    102.746190
PE03 -24566.252620 -15816.786171  -4720.593803    -93.300375
PE04  21546.875131   -697.836105  20291.281994   -325.429292
PE05 -13213.155753 -22866.811054  13374.079295   4719.280659
PE07  -6335.676102  16340.943845 -23847.893559   -103.354673
PE08 -21831.009988    -20.025793 -19984.915975   -222.633851
PE09   6375.904985 -16149.568667  23974.898172   -333.206861
PE10  14144.690416 -19823.478107 -16828.695113   -601.333677
PE11   9489.462360 -26970.626582  -7705.963138   3250.968345
PE12  16355.819990 -10489.164270 -22335.597326   -902.926520
PE13  -9803.629437  26636.705338   8384.244519    -20.162724
PE14  -5922.999193  16431.965186  19194.091708     37.137435
PE15 -16332.872502   9869.055257  22634.682487    -85.363144
PE18  17064.133028 -10783.728721 -23051.481227    317.628477
PE19  23847.056423  17337.461902   2608.218178   -630.436131
PE21   4333.064498  16305.474903  24312.065502   -578.615826
PE24  17355.406921 -18077.064524 -15756.498029   -593.830367
PE25  -3910.660764 -16452.052092 -24297.106258      0.778349
PE26   2820.091263  27307.426117 -11051.907748    366.462345
PE27 -17003.994354  18171.694356  16029.449686   -272.723124
PE30      0.000000      0.000000      0.000000 999999.999999
PE31  28049.599491  -9305.742000   1594.345729    -15.823021
PE33  12967.872490  13003.645715 -23206.553238      7.465033
PE34 -13222.065661 -12390.502028  23406.384516    -94.193535
PE36  -2352.801597 -27569.554094  10542.404695   -184.830316
PG01 -11991.380154  19327.375764  13099.003677    169.233254
PG02 -14118.138492  12153.847462  19330.380725   -486.692112
PG03 -23148.790367  12189.472234  -4346.934870    188.009441
PG04 -15196.975007   6101.021080 -20922.116901    289.700544
PG05  24847.092105  -4970.639034  -8282.437973   -161.510101
PG06   6860.396089  20498.122915 -15288.045844    410.209541
PG07  -5123.532970  25695.337954  -1779.939024    -60.033091
PG08 -20988.704187  -1155.151796  16388.500155   -166.628520
PG09  -2791.578480  16279.608389 -20870.239801     89.488793
PG10  -5473.711693 -13793.791159  22232.207049     -0.013394
PG11  12897.479853   9753.384041 -21054.277659   -573.065379
PG12  24006.050352 -10609.417524  -4115.773414   -477.193577
PG13  21284.306046  11480.372114  11030.999871    624.789343
PG14   1070.283346  15910.973271  21240.325400    323.625430
PG15  21107.332471  -1234.361943  15706.737426    126.872490
PG16 -23415.927052  -2527.583859 -13049.960566   -364.407705
PG17   8880.203100  20915.519410  14049.767545    717.243254
PG18   5064.823414 -25947.168029  -1061.908658   -553.794856
PG19  16227.178451  20654.524317   4893.756393    439.550824
PG20  18660.871657   3889.608314 -18367.145086    387.805113
PG21 -15212.109400   5679.966066  21317.658748    135.220009
PG22   8838.618035  13178.585759  21691.260063     32.546689
PG23   8212.937889 -17110.244388  18522.483125    154.489769
PG24  14694.277608 -10156.630231  19120.115301   -430.387646
PG25  16142.510286 -16699.996172 -12969.343502    488.336004
PG26 -16034.901957  -8461.922268 -19665.451633    191.060150
PG27 -22855.761187 -12268.340115   6407.571683     -3.319540
PG28  -6433.014177 -22375.654618 -12807.220356   -128.390509
PG29   5502.580681 -14770.556796 -21410.716881   -607.134746
PG30   2258.904573  25081.121553   8129.181380   -433.623462
PG31 -11421.736425 -14321.121126 -19299.016818   -227.739683
PG32 -13230.847123 -20302.599332  11310.351053   -611.178650
PJ02 -31791.592661  25182.355229  16616.669530     -1.913404
PJ03 -27135.643349  26393.544919  23709.641873     -0.221221
PJ04 -27839.950547  21806.876237 -17967.062653     50.932952
PJ07 -25394.318781  33655.643280    -56.286815     -0.011210
PR01 -20908.671525   1640.070155 -14506.209204     76.968497
PR02  -5753.878601   9437.305490 -22944.076719    -22.461535
PR03  12764.438295  12581.479703 -18071.105945     94.362677
PR04  23669.927476   8827.577559  -3439.221145    223.089141
PR05  21900.139881    368.197224  13066.990109    126.789136
PR06   4033.252759 -10261.989204  22995.152980   -150.341653
PR07 -13597.586426 -12607.331921  17587.565778     75.642551
PR08 -23794.786485  -8640.599973   3347.438747    -74.391389
PR09  13670.909889 -19871.083256  -8409.900059    169.550231
PR10   2156.764241 -15660.417374 -20006.935861   -121.940510
PR11 -12527.551782  -2407.535278 -22081.117009     34.600550
PR12 -19869.627210  13034.539396  -9277.309278     36.660745
PR13 -15370.608262  19397.642130   6167.236832    -44.273810
PR14   -329.356581  14586.595327  20922.731079     26.061092
PR15  13588.450254   1312.095989  21559.324246     82.269366
PR16  19759.726736 -12993.557063   9602.754926     23.220099
PR17   7223.948218  24282.520741  -3109.833327     60.574852
PR18  11412.611854  14336.294119 -17698.699277    126.981474
PR19  10392.495769   -862.262823 -23275.547071   -265.511416
PR20   2678.216908 -20696.530002 -14690.821548   -108.141855
PR21  -7140.884083 -24236.866228   3430.614550    -76.339112
PR22 -11470.660838 -13654.029057  18276.029492    107.711640
PR23  -9506.824781   5050.910233  23120.210959   -111.714367
PR24  -1854.297182  21163.953044  14144.414313    -43.592899
PR26 -23545.996217  -8831.203341   4231.320484   -198.778437
EOF
